{
    "type": "FeatureCollection",
    "metadata": {
        "source": "https://www.drobnepamatky.cz/",
        "note": "Ukázková data pro vývoj. Reálná data budou importována z databáze Drupalu 6.",
        "generated": "2026-05-30"
    },
    "features": [
        {
            "type": "Feature",
            "geometry": { "type": "Point", "coordinates": [14.4378, 50.0755] },
            "properties": {
                "id": 1,
                "name": "Ukázka – Pražská kaplička",
                "type": "Kaplička",
                "municipality": "Praha",
                "region": "Hlavní město Praha",
                "year": "19. století",
                "description": "Ukázkový bod pro testování zobrazení na mapě.",
                "source_url": "https://www.drobnepamatky.cz/"
            }
        },
        {
            "type": "Feature",
            "geometry": { "type": "Point", "coordinates": [16.6068, 49.1951] },
            "properties": {
                "id": 2,
                "name": "Ukázka – Brněnský kříž",
                "type": "Kříž",
                "municipality": "Brno",
                "region": "Jihomoravský",
                "year": "1850",
                "description": "Ukázkový bod pro testování zobrazení na mapě.",
                "source_url": "https://www.drobnepamatky.cz/"
            }
        },
        {
            "type": "Feature",
            "geometry": { "type": "Point", "coordinates": [18.2625, 49.8209] },
            "properties": {
                "id": 3,
                "name": "Ukázka – Ostravská boží muka",
                "type": "Boží muka",
                "municipality": "Ostrava",
                "region": "Moravskoslezský",
                "year": "18. století",
                "description": "Ukázkový bod pro testování zobrazení na mapě.",
                "source_url": "https://www.drobnepamatky.cz/"
            }
        },
        {
            "type": "Feature",
            "geometry": { "type": "Point", "coordinates": [13.3736, 49.7384] },
            "properties": {
                "id": 4,
                "name": "Ukázka – Plzeňský smírčí kámen",
                "type": "Smírčí kámen",
                "municipality": "Plzeň",
                "region": "Plzeňský",
                "year": "17. století",
                "description": "Ukázkový bod pro testování zobrazení na mapě.",
                "source_url": "https://www.drobnepamatky.cz/"
            }
        },
        {
            "type": "Feature",
            "geometry": { "type": "Point", "coordinates": [15.0628, 50.7663] },
            "properties": {
                "id": 5,
                "name": "Ukázka – Liberecká socha",
                "type": "Socha",
                "municipality": "Liberec",
                "region": "Liberecký",
                "year": "1890",
                "description": "Ukázkový bod pro testování zobrazení na mapě.",
                "source_url": "https://www.drobnepamatky.cz/"
            }
        },
        {
            "type": "Feature",
            "geometry": { "type": "Point", "coordinates": [15.7812, 50.2092] },
            "properties": {
                "id": 6,
                "name": "Ukázka – Hradecká kaple",
                "type": "Kaple",
                "municipality": "Hradec Králové",
                "region": "Královéhradecký",
                "year": "1820",
                "description": "Ukázkový bod pro testování zobrazení na mapě.",
                "source_url": "https://www.drobnepamatky.cz/"
            }
        },
        {
            "type": "Feature",
            "geometry": { "type": "Point", "coordinates": [17.2509, 49.5938] },
            "properties": {
                "id": 7,
                "name": "Ukázka – Olomoucký památník",
                "type": "Pomník",
                "municipality": "Olomouc",
                "region": "Olomoucký",
                "year": "1920",
                "description": "Ukázkový bod pro testování zobrazení na mapě.",
                "source_url": "https://www.drobnepamatky.cz/"
            }
        },
        {
            "type": "Feature",
            "geometry": { "type": "Point", "coordinates": [12.8731, 50.2304] },
            "properties": {
                "id": 8,
                "name": "Ukázka – Karlovarský kříž",
                "type": "Kříž",
                "municipality": "Karlovy Vary",
                "region": "Karlovarský",
                "year": "1860",
                "description": "Ukázkový bod pro testování zobrazení na mapě.",
                "source_url": "https://www.drobnepamatky.cz/"
            }
        }
    ]
}
